SWARM A                 
1 39452U 13067B   26155.89497447  .00011922  00000+0  20695-3 0  9990
2 39452  87.3331  60.8066 0003027  91.1803 268.9805 15.50698018704349
SWARM C                 
1 39453U 13067C   26155.89486628  .00011747  00000+0  20388-3 0  9994
2 39453  87.3330  59.3879 0003007  91.2198 268.9408 15.50700017704308
BRITE-CA1 (TORONTO)     
1 40020U 14033L   26155.26417950  .00000870  00000+0  13835-3 0  9997
2 40020  97.9724 284.4316 0077664 319.0531  40.4860 14.72658739640314
OCO 2                   
1 40059U 14035A   26155.86358785  .00000513  00000+0  12385-3 0  9990
2 40059  98.2015  97.3447 0001471  87.5348 272.6019 14.57100883634251
BRITE-PL2 (HEWELIUSZ)   
1 40119U 14049B   26155.25097445  .00002888  00000+0  27217-3 0  9995
2 40119  97.9085 267.1526 0014906 148.0147 212.1981 14.94543231639513
MMS 1                   
1 40482U 15011A   26156.00002315 -.00000358  00000+0  00000+0 0  9992
2 40482  72.0164 348.9311 8337277 167.0561 135.6510  0.28349243  1379
MMS 2                   
1 40483U 15011B   26156.00002315 -.00000358  00000+0  00000+0 0  9993
2 40483  72.0166 348.9333 8338055 167.0618 135.6391  0.28349267  1377
MMS 3                   
1 40484U 15011C   26156.00002315 -.00000358  00000+0  00000+0 0  9994
2 40484  72.0196 348.9378 8337249 167.0562 135.6360  0.28349228  1375
MMS 4                   
1 40485U 15011D   26156.00002315 -.00000358  00000+0  00000+0 0  9995
2 40485  72.0159 348.9335 8336843 167.0640 135.6244  0.28349214  1370
ASTROSAT                
1 40930U 15052A   26155.04032228  .00001809  00000+0  13844-3 0  9999
2 40930   5.9962 249.9966 0008231 211.3918 148.5718 14.82484264577874
DAMPE                   
1 41173U 15078A   26155.94445888  .00001124  00000+0  40348-4 0  9996
2 41173  97.4557 161.3514 0013521 115.1286 245.1359 15.30751526582674
PISAT                   
1 41784U 16059B   26154.99760220  .00001004  00000+0  17864-3 0  9991
2 41784  97.8177 156.0175 0027582 246.5558 113.2748 14.68959119517809
HXMT (HUIYAN)           
1 42758U 17034A   26155.76760025  .00005458  00000+0  26918-3 0  9993
2 42758  43.0139 252.1936 0030237  65.0432 295.3553 15.18378778495770
FLYING LAPTOP           
1 42831U 17042G   26155.92017758  .00004082  00000+0  32259-3 0  9997
2 42831  97.4642 311.9299 0018780 161.8339 198.3561 15.01062529484618
ZHANGHENG 1-01 (CSES-1) 
1 43194U 18015C   26155.96608917  .00007568  00000+0  34670-3 0  9999
2 43194  97.6866 321.3831 0017311 312.2451  47.7314 15.20649567462785
SALSAT                  
1 46495U 20068K   26154.99736177  .00008555  00000+0  30076-3 0  9992
2 46495  97.8850 157.2614 0009364 359.9507   0.1729 15.29597840313346
IXPE                    
1 49954U 21121A   26155.91672454  .00013613  00000+0  75383-3 0  9997
2 49954   0.2302  49.8448 0006941 253.4191 125.3462 15.10136254  5671
SMILE                   
1 69123U 26109A   26144.65318427 -.00001976  00000+0 -42379-3 0  9994
2 69123  70.0007 229.2745 0009123 259.5159 100.4951 14.57062785   802
