OBJECT_NAME,OBJECT_ID,EPOCH,MEAN_MOTION,ECCENTRICITY,INCLINATION,RA_OF_ASC_NODE,ARG_OF_PERICENTER,MEAN_ANOMALY,EPHEMERIS_TYPE,CLASSIFICATION_TYPE,NORAD_CAT_ID,ELEMENT_SET_NO,REV_AT_EPOCH,BSTAR,MEAN_MOTION_DOT,MEAN_MOTION_DDOT
SWARM A,2013-067B,2026-06-04T21:28:45.794208,15.50698018,.00030274,87.3331,60.8066,91.1803,268.9805,0,U,39452,999,70434,.20694641E-3,.11922E-3,0
SWARM C,2013-067C,2026-06-04T21:28:36.446592,15.50700017,.00030071,87.3330,59.3879,91.2198,268.9408,0,U,39453,999,70430,.20387503E-3,.11747E-3,0
BRITE-CA1 (TORONTO),2014-033L,2026-06-04T06:20:25.108800,14.72658739,.00776648,97.9724,284.4316,319.0531,40.4860,0,U,40020,999,64031,.13835154E-3,.87E-5,0
OCO 2,2014-035A,2026-06-04T20:43:33.990240,14.57100883,.00014716,98.2015,97.3447,87.5348,272.6019,0,U,40059,999,63425,.12385056E-3,.513E-5,0
BRITE-PL2 (HEWELIUSZ),2014-049B,2026-06-04T06:01:24.192480,14.94543231,.00149068,97.9085,267.1526,148.0147,212.1981,0,U,40119,999,63951,.27217109E-3,.2888E-4,0
MMS 1,2015-011A,2026-06-05T00:00:02.000160,0.28349243,.83372773,72.0164,348.9311,167.0561,135.6510,0,U,40482,999,137,0,-.358E-5,0
MMS 2,2015-011B,2026-06-05T00:00:02.000160,0.28349267,.8338055,72.0166,348.9333,167.0618,135.6391,0,U,40483,999,137,0,-.358E-5,0
MMS 3,2015-011C,2026-06-05T00:00:02.000160,0.28349228,.83372498,72.0196,348.9378,167.0562,135.6360,0,U,40484,999,137,0,-.358E-5,0
MMS 4,2015-011D,2026-06-05T00:00:02.000160,0.28349214,.83368433,72.0159,348.9335,167.0640,135.6244,0,U,40485,999,137,0,-.358E-5,0
ASTROSAT,2015-052A,2026-06-04T00:58:03.844992,14.82484264,.00082316,5.9962,249.9966,211.3918,148.5718,0,U,40930,999,57787,.13843982E-3,.1809E-4,0
DAMPE,2015-078A,2026-06-04T22:40:01.247232,15.30751526,.0013521,97.4557,161.3514,115.1286,245.1359,0,U,41173,999,58267,.40348209E-4,.1124E-4,0
PISAT,2016-059B,2026-06-03T23:56:32.830080,14.68959119,.00275826,97.8177,156.0175,246.5558,113.2748,0,U,41784,999,51780,.17863658E-3,.1004E-4,0
HXMT (HUIYAN),2017-034A,2026-06-04T18:25:20.661600,15.18378778,.00302378,43.0139,252.1936,65.0432,295.3553,0,U,42758,999,49577,.2691798E-3,.5458E-4,0
FLYING LAPTOP,2017-042G,2026-06-04T22:05:03.342912,15.01062529,.00187804,97.4642,311.9299,161.8339,198.3561,0,U,42831,999,48461,.3225919E-3,.4082E-4,0
ZHANGHENG 1-01 (CSES-1),2018-015C,2026-06-04T23:11:10.104288,15.20649567,.0017311,97.6866,321.3831,312.2451,47.7314,0,U,43194,999,46278,.34670123E-3,.7568E-4,0
SALSAT,2020-068K,2026-06-03T23:56:12.056928,15.29597840,.00093644,97.8850,157.2614,359.9507,0.1729,0,U,46495,999,31334,.30076162E-3,.8555E-4,0
IXPE,2021-121A,2026-06-04T22:00:05.000256,15.10136254,.00069418,0.2302,49.8448,253.4191,125.3462,0,U,49954,999,567,.75383146E-3,.13613E-3,0
SMILE,2026-109A,2026-05-24T15:40:35.120928,14.57062785,.00091232,70.0007,229.2745,259.5159,100.4951,0,U,69123,999,80,-.42378883E-3,-.1976E-4,0
